{"fetched_at":"2026-07-15T17:46:46.517Z","source":"https://celestrak.org/NORAD/elements/gp.php?GROUP=oneweb&FORMAT=JSON","constellation":"oneweb","records":[{"OBJECT_NAME":"ONEWEB-0320","OBJECT_ID":"2021-083E","EPOCH":"2026-07-14T22:23:28.780800","CLASSIFICATION_TYPE":"U","MEAN_MOTION":13.18687477,"ECCENTRICITY":0.0001948,"INCLINATION":87.9185,"RA_OF_ASC_NODE":329.9431,"ARG_OF_PERICENTER":98.6054,"MEAN_ANOMALY":261.5299,"EPHEMERIS_TYPE":0,"NORAD_CAT_ID":49190,"ELEMENT_SET_NO":999,"REV_AT_EPOCH":23363,"BSTAR":-0.000078583,"MEAN_MOTION_DOT":-1.8e-7,"MEAN_MOTION_DDOT":0},{"OBJECT_NAME":"ONEWEB-0321","OBJECT_ID":"2021-083F","EPOCH":"2026-07-15T03:43:37.691040","CLASSIFICATION_TYPE":"U","MEAN_MOTION":13.20773279,"ECCENTRICITY":0.0002143,"INCLINATION":87.9185,"RA_OF_ASC_NODE":268.8617,"ARG_OF_PERICENTER":104.3143,"MEAN_ANOMALY":255.8228,"EPHEMERIS_TYPE":0,"NORAD_CAT_ID":49191,"ELEMENT_SET_NO":999,"REV_AT_EPOCH":24052,"BSTAR":0.00026468,"MEAN_MOTION_DOT":0.00000121,"MEAN_MOTION_DDOT":0},{"OBJECT_NAME":"ONEWEB-0322","OBJECT_ID":"2021-083G","EPOCH":"2026-07-14T21:13:01.723008","CLASSIFICATION_TYPE":"U","MEAN_MOTION":13.13469649,"ECCENTRICITY":0.0002047,"INCLINATION":87.8977,"RA_OF_ASC_NODE":314.7232,"ARG_OF_PERICENTER":113.2558,"MEAN_ANOMALY":246.8786,"EPHEMERIS_TYPE":0,"NORAD_CAT_ID":49192,"ELEMENT_SET_NO":999,"REV_AT_EPOCH":23455,"BSTAR":-0.00061942,"MEAN_MOTION_DOT":-0.00000213,"MEAN_MOTION_DDOT":0},{"OBJECT_NAME":"ONEWEB-0324","OBJECT_ID":"2021-083H","EPOCH":"2026-07-14T21:44:39.276096","CLASSIFICATION_TYPE":"U","MEAN_MOTION":13.18686637,"ECCENTRICITY":0.0002076,"INCLINATION":87.9199,"RA_OF_ASC_NODE":329.9386,"ARG_OF_PERICENTER":95.5947,"MEAN_ANOMALY":264.5422,"EPHEMERIS_TYPE":0,"NORAD_CAT_ID":49193,"ELEMENT_SET_NO":999,"REV_AT_EPOCH":23365,"BSTAR":-0.00017831,"MEAN_MOTION_DOT":-5.7e-7,"MEAN_MOTION_DDOT":0},{"OBJECT_NAME":"ONEWEB-0325","OBJECT_ID":"2021-083J","EPOCH":"2026-07-14T21:49:29.860032","CLASSIFICATION_TYPE":"U","MEAN_MOTION":13.18687313,"ECCENTRICITY":0.0001842,"INCLINATION":87.9189,"RA_OF_ASC_NODE":329.9434,"ARG_OF_PERICENTER":100.1652,"MEAN_ANOMALY":259.9688,"EPHEMERIS_TYPE":0,"NORAD_CAT_ID":49194,"ELEMENT_SET_NO":999,"REV_AT_EPOCH":23366,"BSTAR":-0.00027474,"MEAN_MOTION_DOT":-9.5e-7,"MEAN_MOTION_DDOT":0},{"OBJECT_NAME":"ONEWEB-0326","OBJECT_ID":"2021-083K","EPOCH":"2026-07-14T22:11:34.543104","CLASSIFICATION_TYPE":"U","MEAN_MOTION":13.18686577,"ECCENTRICITY":0.0001699,"INCLINATION":87.9196,"RA_OF_ASC_NODE":329.9406,"ARG_OF_PERICENTER":92.8841,"MEAN_ANOMALY":267.2485,"EPHEMERIS_TYPE":0,"NORAD_CAT_ID":49195,"ELEMENT_SET_NO":999,"REV_AT_EPOCH":23365,"BSTAR":-0.00018588,"MEAN_MOTION_DOT":-6e-7,"MEAN_MOTION_DDOT":0},{"OBJECT_NAME":"ONEWEB-0327","OBJECT_ID":"2021-083L","EPOCH":"2026-07-14T20:21:54.579168","CLASSIFICATION_TYPE":"U","MEAN_MOTION":13.18686546,"ECCENTRICITY":0.00014917,"INCLINATION":87.9187,"RA_OF_ASC_NODE":329.9574,"ARG_OF_PERICENTER":92.8129,"MEAN_ANOMALY":267.3174,"EPHEMERIS_TYPE":0,"NORAD_CAT_ID":49196,"ELEMENT_SET_NO":999,"REV_AT_EPOCH":23366,"BSTAR":0.000029658446,"MEAN_MOTION_DOT":2.5e-7,"MEAN_MOTION_DDOT":0},{"OBJECT_NAME":"ONEWEB-0328","OBJECT_ID":"2021-083M","EPOCH":"2026-07-14T20:58:24.243744","CLASSIFICATION_TYPE":"U","MEAN_MOTION":13.13469198,"ECCENTRICITY":0.0002044,"INCLINATION":87.8988,"RA_OF_ASC_NODE":314.701,"ARG_OF_PERICENTER":97.5991,"MEAN_ANOMALY":262.537,"EPHEMERIS_TYPE":0,"NORAD_CAT_ID":49197,"ELEMENT_SET_NO":999,"REV_AT_EPOCH":23453,"BSTAR":0.0002952,"MEAN_MOTION_DOT":0.00000121,"MEAN_MOTION_DDOT":0},{"OBJECT_NAME":"ONEWEB-0331","OBJECT_ID":"2021-083N","EPOCH":"2026-07-14T22:01:38.638848","CLASSIFICATION_TYPE":"U","MEAN_MOTION":13.18684413,"ECCENTRICITY":0.0001725,"INCLINATION":87.9198,"RA_OF_ASC_NODE":329.9358,"ARG_OF_PERICENTER":88.0376,"MEAN_ANOMALY":272.0954,"EPHEMERIS_TYPE":0,"NORAD_CAT_ID":49198,"ELEMENT_SET_NO":999,"REV_AT_EPOCH":23366,"BSTAR":-0.00011818,"MEAN_MOTION_DOT":-3.4e-7,"MEAN_MOTION_DDOT":0},{"OBJECT_NAME":"ONEWEB-0333","OBJECT_ID":"2021-083P","EPOCH":"2026-07-14T20:51:05.487264","CLASSIFICATION_TYPE":"U","MEAN_MOTION":13.13469318,"ECCENTRICITY":0.000186,"INCLINATION":87.8979,"RA_OF_ASC_NODE":314.7257,"ARG_OF_PERICENTER":100.3841,"MEAN_ANOMALY":259.7498,"EPHEMERIS_TYPE":0,"NORAD_CAT_ID":49199,"ELEMENT_SET_NO":999,"REV_AT_EPOCH":23454,"BSTAR":0.00064479,"MEAN_MOTION_DOT":0.00000248,"MEAN_MOTION_DDOT":0},{"OBJECT_NAME":"ONEWEB-0334","OBJECT_ID":"2021-083Q","EPOCH":"2026-07-15T04:04:13.058112","CLASSIFICATION_TYPE":"U","MEAN_MOTION":13.20769257,"ECCENTRICITY":0.0002481,"INCLINATION":87.9185,"RA_OF_ASC_NODE":268.8696,"ARG_OF_PERICENTER":118.0674,"MEAN_ANOMALY":242.071,"EPHEMERIS_TYPE":0,"NORAD_CAT_ID":49200,"ELEMENT_SET_NO":999,"REV_AT_EPOCH":24048,"BSTAR":0.000092026,"MEAN_MOTION_DOT":5e-7,"MEAN_MOTION_DDOT":0},{"OBJECT_NAME":"ONEWEB-0335","OBJECT_ID":"2021-083R","EPOCH":"2026-07-14T20:43:46.513920","CLASSIFICATION_TYPE":"U","MEAN_MOTION":13.13468392,"ECCENTRICITY":0.0001811,"INCLINATION":87.8972,"RA_OF_ASC_NODE":314.7244,"ARG_OF_PERICENTER":94.3135,"MEAN_ANOMALY":265.8201,"EPHEMERIS_TYPE":0,"NORAD_CAT_ID":49201,"ELEMENT_SET_NO":999,"REV_AT_EPOCH":23455,"BSTAR":0.0011042,"MEAN_MOTION_DOT":0.00000416,"MEAN_MOTION_DDOT":0},{"OBJECT_NAME":"ONEWEB-0336","OBJECT_ID":"2021-083S","EPOCH":"2026-07-14T20:02:19.563360","CLASSIFICATION_TYPE":"U","MEAN_MOTION":13.13469462,"ECCENTRICITY":0.00018495,"INCLINATION":87.8974,"RA_OF_ASC_NODE":314.7249,"ARG_OF_PERICENTER":90.7612,"MEAN_ANOMALY":269.3729,"EPHEMERIS_TYPE":0,"NORAD_CAT_ID":49202,"ELEMENT_SET_NO":999,"REV_AT_EPOCH":23454,"BSTAR":-0.00039591178,"MEAN_MOTION_DOT":-0.00000132,"MEAN_MOTION_DDOT":0},{"OBJECT_NAME":"ONEWEB-0337","OBJECT_ID":"2021-083T","EPOCH":"2026-07-14T18:27:04.593888","CLASSIFICATION_TYPE":"U","MEAN_MOTION":13.13469484,"ECCENTRICITY":0.00020698,"INCLINATION":87.8974,"RA_OF_ASC_NODE":314.7436,"ARG_OF_PERICENTER":95.2145,"MEAN_ANOMALY":264.9221,"EPHEMERIS_TYPE":0,"NORAD_CAT_ID":49203,"ELEMENT_SET_NO":999,"REV_AT_EPOCH":23453,"BSTAR":0.00039845461,"MEAN_MOTION_DOT":0.00000158,"MEAN_MOTION_DDOT":0},{"OBJECT_NAME":"ONEWEB-0338","OBJECT_ID":"2021-083U","EPOCH":"2026-07-15T03:31:29.654400","CLASSIFICATION_TYPE":"U","MEAN_MOTION":13.20771278,"ECCENTRICITY":0.0002144,"INCLINATION":87.9183,"RA_OF_ASC_NODE":268.875,"ARG_OF_PERICENTER":107.4226,"MEAN_ANOMALY":252.7142,"EPHEMERIS_TYPE":0,"NORAD_CAT_ID":49204,"ELEMENT_SET_NO":999,"REV_AT_EPOCH":24050,"BSTAR":0.00018383,"MEAN_MOTION_DOT":8.8e-7,"MEAN_MOTION_DDOT":0},{"OBJECT_NAME":"ONEWEB-0339","OBJECT_ID":"2021-083V","EPOCH":"2026-07-14T20:29:09.096000","CLASSIFICATION_TYPE":"U","MEAN_MOTION":13.13469126,"ECCENTRICITY":0.0002142,"INCLINATION":87.8974,"RA_OF_ASC_NODE":314.7207,"ARG_OF_PERICENTER":106.5363,"MEAN_ANOMALY":253.6001,"EPHEMERIS_TYPE":0,"NORAD_CAT_ID":49205,"ELEMENT_SET_NO":999,"REV_AT_EPOCH":23452,"BSTAR":0.00071367,"MEAN_MOTION_DOT":0.00000273,"MEAN_MOTION_DDOT":0}]}
